#cP2015  5 26  0  0  0.00000000      96 ORBIT IGb08 HLM  IGS
## 1846 172800.00000000   900.00000000 57168 0.0000000000000
+   32   G01G02G03G04G05G06G07G08G09G10G11G12G13G14G15G16G17
+        G18G19G20G21G22G23G24G25G26G27G28G29G30G31G32  0  0
+          0  0  0  0  0  0  0  0  0  0  0  0  0  0  0  0  0
+          0  0  0  0  0  0  0  0  0  0  0  0  0  0  0  0  0
+          0  0  0  0  0  0  0  0  0  0  0  0  0  0  0  0  0
++         2  3  2  2  2  2  2  0  2  2  2  2  2  2  3  2  2
++         3  2  2  2  2  2  2  2  2  2  2  3  2  2  2  0  0
++         0  0  0  0  0  0  0  0  0  0  0  0  0  0  0  0  0
++         0  0  0  0  0  0  0  0  0  0  0  0  0  0  0  0  0
++         0  0  0  0  0  0  0  0  0  0  0  0  0  0  0  0  0
%c G  cc GPS ccc cccc cccc cccc cccc ccccc ccccc ccccc ccccc
%c cc cc ccc ccc cccc cccc cccc cccc ccccc ccccc ccccc ccccc
%f  1.2500000  1.025000000  0.00000000000  0.000000000000000
%f  0.0000000  0.000000000  0.00000000000  0.000000000000000
%i    0    0    0    0      0      0      0      0         0
%i    0    0    0    0      0      0      0      0         0
/* RAPID ORBIT COMBINATION FROM WEIGHTED AVERAGE OF:        
/* cod emr esa gfz jpl ngs sio usn whu                      
/* REFERENCED TO IGS TIME (IGST) AND TO WEIGHTED MEAN POLE: 
/* PCV:IGS08_1844 OL/AL:FES2004  NONE     Y  ORB:CMB CLK:CMB
*  2015  5 26  5 15  0.00000000
PG01   5817.140196  14264.472095 -21700.669728     -5.119981  6  5  6 101       
PG02  16185.158220 -14997.889180  14820.213762    568.118773  7 10  6  89       
PG03  12243.705497  22152.243163  -7974.512691    336.293240  5  8  7  92       
PG04  -4588.414513  16455.768432 -20601.892227    -16.267680  3  7  5 119       
PG05   5390.851221 -15984.898030  20422.660282   -237.099669  6  6  5  57       
PG06  25662.979238  -6611.515427   1740.605165    169.513029  4  7  2  82       
PG07  19835.414716   7702.528445  16230.613285    464.578978  1  6  4 101       
PG08 -17575.486616   -249.125605  19797.082081 999999.999999
PG09   9927.388457  14581.480852  19843.056038   -161.790413  7  6  7  60       
PG10  19406.299553   2515.546146  17757.381943   -176.411250  4  3  5 103       
PG11   1021.343291  18132.143951 -19883.607792   -580.718906  3  7  4 115       
PG12  -9255.445191 -22630.699129 -10747.800714    296.051342  5  9  3 123       
PG13  12845.804760 -23110.353961   3004.635661   -117.699095  7  6  7  91       
PG14 -16800.187506   5062.351442 -19649.241339     60.761493  5  2  6 122       
PG15   2317.890113 -25559.544117  -6245.294831   -251.341659  7 10  4  93       
PG16  -6181.001284  14620.265801  21139.435150   -125.451742  8  8  7 107       
PG17  16422.843879  -4993.380948 -19916.773219   -172.919774  5  6  5  76       
PG18 -21170.191517 -13804.677101  -8137.489246    404.331493  5 10  7  83       
PG19  -7229.642115  24851.771889  -4907.869232   -511.530350  6  9  1 112       
PG20   -136.211656 -19186.501315  18184.652778    323.505158  6  7  3  93       
PG21 -21639.476028  -6482.916921  14949.259765   -449.488627  3  9  4  99       
PG22 -20047.720918  -2631.774296 -17073.979593    354.183373  7  7  6 110       
PG23   3058.408478  22277.319535  13928.946876   -110.749117  5 10  6  49       
PG24  -2646.966482 -15175.137300 -21671.624446    -48.878469  6  9  4  99       
PG25 -18127.380015 -19516.527796    824.419122    -32.999477  7 10  7  99       
PG26 -14349.397949   6417.667597  21399.365387     30.636994  6  7  8 106       
PG27 -12249.325406  22505.128860   6743.452342     74.581418  7  6  6  65       
PG28  19470.275963   8932.312338 -15141.336675    442.383791  4  8  7  73       
PG29  -7613.072467 -16603.071079  19324.963001    612.781585  6  7  6  75       
PG30  25663.345563   1491.656419   6807.193368    -54.166584     8  3 101       
PG31 -24944.537497   8056.804810   5424.091336    314.830652  4  7  5 106       
PG32   -664.490193  20145.002320 -17581.767236   -141.791218     8  4 114       
*  2015  5 26  5 30  0.00000000
PG01   3405.491023  14833.854934 -21814.476408     -5.119542  6  6  5 105       
PG02  17735.917967 -15154.787330  12633.638773    568.120955  8 10  6  98       
PG03  11338.095430  21546.069592 -10555.634746    336.301237  6  8  7  96       
PG04  -6795.252318  16900.812546 -19566.440915    -16.268969  2  7  3 115       
PG05   7114.025261 -14317.860533  21134.624172   -237.095313  6  5  5  59       
PG06  25757.349840  -6374.065269  -1117.369001    169.521123  4  7  1  94       
PG07  17977.535633   8226.185299  18016.237689    464.581243     7  4 104       
PG08 -18999.999618  -1938.286105  18370.303291 999999.999999
PG09   9196.193212  16657.531411  18515.627795   -161.795522  7  7  7  28       
PG10  20640.277124   4091.371206  16065.755951   -176.413138  5  3  4 101       
PG11   -863.096637  19172.752826 -18848.857754   -580.721088  3  8  4 105       
PG12  -8278.370579 -21698.638493 -13190.701390    296.054076  5  9  3 122       
PG13  12833.484510 -22553.024957   5821.477955   -117.701985  6  6  7  89       
PG14 -16054.190618   2821.726362 -20695.860527     60.758751  5  1  6 119       
PG15   2786.354172 -26016.891367  -3501.245018   -251.343566  7 10  5  97       
PG16  -7808.406579  12755.990221  21827.595117   -125.448239  8  7  6 116       
PG17  15727.829025  -2697.423518 -20900.963281   -172.921010  6  4  4  82       
PG18 -21529.673344 -14627.572843  -5520.404782    404.334092  5 10  7  82       
PG19  -7613.929771  25108.811898  -2043.382219   -511.531115  6 10  3  93       
PG20   1601.459620 -17832.527076  19445.774036    323.508173  5  6  3  94       
PG21 -20040.636359  -7090.786213  16840.071461   -449.491636  3  9  5  92       
PG22 -21219.088496  -4141.166574 -15307.233040    354.187019  6  7  6 105       
PG23   2393.015037  23601.021588  11629.370240   -110.751106  5 10  7  85       
PG24   -257.720654 -15760.429176 -21398.990737    -48.879358  5  8  5 108       
PG25 -17946.974131 -19606.460263  -2054.660924    -33.002998  7 10  7  79       
PG26 -15970.370162   4631.777219  20701.500399     30.637387  5  7  8 113       
PG27 -12208.575926  21549.552614   9414.841888     74.583853  6  6  6  48       
PG28  20435.827290  10331.941572 -12911.751722    442.386256  3  8  7  81       
PG29  -6799.899368 -18558.316385  17791.105319    612.784119  6  6  6  90       
PG30  24785.278444   1884.534992   9441.738546    -54.161457     8  3 102       
PG31 -25412.933370   7965.756365   2608.312994    314.829707  4  6  4 110       
PG32  -2069.849050  18606.843069 -19056.836773   -141.782249  2  9  4 115       
*  2015  5 26  5 45  0.00000000
PG01   1033.077829  15527.041408 -21554.571164     -5.119076  6  6  5 109       
PG02  19036.280743 -15302.257568  10228.931649    568.122855  7 10  6  98       
PG03  10196.167576  20794.909797 -12954.609799    336.309359  5  8  6  83       
PG04  -8853.536492  17413.305837 -18200.781024    -16.270137  2  8  3 113       
PG05   8960.411156 -12698.684887  21480.478463   -237.091306  6  4  6  49       
PG06  25555.634258  -6047.108505  -3956.106616    169.529245  3  7     96       
PG07  15972.454724   8900.335702  19498.287497    464.583447     8  5 102       
PG08 -20384.904021  -3417.540258  16625.224444 999999.999999
PG09   8610.332594  18604.464090  16869.197025   -161.800729  7  7  7  49       
PG10  21797.245122   5456.519472  14094.919315   -176.414230  5  4  4  99       
PG11  -2599.954712  20215.851803 -17501.877447   -580.723434  3  8  4 122       
PG12  -7065.542081 -20636.159102 -15410.348179    296.057019  5  9  2 118       
PG13  12748.796709 -21699.173306   8538.484954   -117.704901  6  6  7  65       
PG14 -15396.898752    451.191618 -21377.562830     60.756337  5  2  5 115       
PG15   3176.722280 -26186.015912   -695.837644   -251.345430  7 10  5  89       
PG16  -9574.771783  10947.368793  22135.913418   -125.444857  8  6  5 117       
PG17  15131.058771   -280.282805 -21514.608365   -172.922516  6  3  4  90       
PG18 -21706.242873 -15227.477431  -2808.763061    404.336295  6 11  7  81       
PG19  -7881.616055  25071.962262    857.233160   -511.532377  5 10  3 107       
PG20   3495.758708 -16482.299922  20367.439876    323.511637  5  5  5  90       
PG21 -18292.426380  -7834.379260  18458.631161   -449.495181  3  9  5  91       
PG22 -22298.353947  -5448.557793 -13274.944154    354.190535  6  7  6 110       
PG23   1854.752216  24692.145269   9126.462233   -110.753408  4 11  7  97       
PG24   2050.961597 -16451.305201 -20758.878927    -48.879272  5  9  5 103       
PG25 -17535.895389 -19485.498819  -4898.778323    -33.006519  7 10  7 101       
PG26 -17609.294614   3000.202587  19647.133044     30.637759  5  7  8 117       
PG27 -12152.970553  20306.337660  11923.030840     74.586315  6  6  6  62       
PG28  21293.126418  11472.672171 -10452.967741    442.388682  3  7  6  85       
PG29  -6146.905701 -20371.185964  15952.210737    612.785850  6  6  5  81       
PG30  23646.917492   2385.679903  11914.317757    -54.156311  1  8  3 105       
PG31 -25578.216853   7816.396374   -251.355250    314.828598  5  6  5 104       
PG32  -3653.753943  17030.148677 -20209.596378   -141.773439  3  9  4 112       
EOF
